HTV-X1                  
1 66174U 25241A   26095.84346118  .00006264  00000+0  20769-3 0  9999
2 66174  51.6366 302.1676 0007382 277.6450  82.3693 15.32552432 25100
SZ-21 MODULE            
1 66515U 25246C   26095.54185734  .00044840  00000+0  35049-3 0  9994
2 66515  41.4755  37.8006 0003531 233.2393 126.8126 15.70809155 22294
SHENZHOU-22             
1 66645U 25272A   26095.89999512  .00029649  00000+0  33283-3 0  9990
2 66645  41.4683  42.4237 0003645 135.7211 224.3921 15.61975413282136
SOYUZ-MS 28             
1 66664U 25275A   26095.81141530  .00008309  00000+0  15990-3 0  9990
2 66664  51.6329 298.2672 0006355 276.3215  83.7049 15.48791307560644
DUPLEX                  
1 66906U 98067XS  26095.73380831  .00031879  00000+0  42076-3 0  9991
2 66906  51.6291 293.9995 0003427 242.9142 117.1501 15.58082478 19340
ISS OBJECT XT           
1 66907U 98067XT  26095.81394862  .00323618  00000+0  15655-2 0  9997
2 66907  51.6217 286.2314 0007627 257.9679 102.0469 15.81038991 19451
ISS OBJECT XU           
1 66908U 98067XU  26095.80859487  .00317413  00000+0  15091-2 0  9996
2 66908  51.6224 286.1920 0007804 256.8765 103.1367 15.81429806 19451
SILVERSAT               
1 66909U 98067XV  26095.73059919  .00511697  10942-3  17462-2 0  9995
2 66909  51.6180 284.8979 0009440 264.4078  95.5851 15.89127269 19461
ISS OBJECT XW           
1 66910U 98067XW  26095.76678366  .00265460  00000+0  14295-2 0  9998
2 66910  51.6196 286.6599 0007677 253.0200 106.9959 15.78843649 19448
ISS OBJECT XX           
1 66911U 98067XX  26095.75372862  .01217551  79992-3  21131-2 0  9996
2 66911  51.6135 282.7499 0012061 272.1994  87.7635 16.01632842 19482
ISS OBJECT XY           
1 66912U 98067XY  26095.82166627  .00142970  00000+0  11568-2 0  9999
2 66912  51.6244 289.3172 0005290 250.7234 109.3192 15.69823635 19406
KNACKSAT-2              
1 67683U 98067XZ  26095.81892939  .00047225  00000+0  71168-3 0  9996
2 67683  51.6317 296.8195 0010840 286.1763  73.8034 15.54247426  9005
