CCSDS_OMM_VERS = 2.0
CREATION_DATE  = 
ORIGINATOR     = 

OBJECT_NAME    = HTV-X1
OBJECT_ID      = 2025-241A
CENTER_NAME    = EARTH
REF_FRAME      = TEME
TIME_SYSTEM    = UTC
MEAN_ELEMENT_THEORY = SGP/SGP4

EPOCH          = 2026-04-05T20:14:35.045952
MEAN_MOTION    = 15.32552432
ECCENTRICITY   = .0007382
INCLINATION    = 51.6366
RA_OF_ASC_NODE = 302.1676
ARG_OF_PERICENTER = 277.6450
MEAN_ANOMALY   = 82.3693

EPHEMERIS_TYPE = 0
CLASSIFICATION_TYPE = U
NORAD_CAT_ID   = 66174
ELEMENT_SET_NO = 999
REV_AT_EPOCH   = 2510
BSTAR          = .20769E-3
MEAN_MOTION_DOT = .6264E-4
MEAN_MOTION_DDOT = 0

CCSDS_OMM_VERS = 2.0
CREATION_DATE  = 
ORIGINATOR     = 

OBJECT_NAME    = SZ-21 MODULE
OBJECT_ID      = 2025-246C
CENTER_NAME    = EARTH
REF_FRAME      = TEME
TIME_SYSTEM    = UTC
MEAN_ELEMENT_THEORY = SGP/SGP4

EPOCH          = 2026-04-05T13:00:16.474176
MEAN_MOTION    = 15.70809155
ECCENTRICITY   = .0003531
INCLINATION    = 41.4755
RA_OF_ASC_NODE = 37.8006
ARG_OF_PERICENTER = 233.2393
MEAN_ANOMALY   = 126.8126

EPHEMERIS_TYPE = 0
CLASSIFICATION_TYPE = U
NORAD_CAT_ID   = 66515
ELEMENT_SET_NO = 999
REV_AT_EPOCH   = 2229
BSTAR          = .35049E-3
MEAN_MOTION_DOT = .4484E-3
MEAN_MOTION_DDOT = 0

CCSDS_OMM_VERS = 2.0
CREATION_DATE  = 
ORIGINATOR     = 

OBJECT_NAME    = SHENZHOU-22
OBJECT_ID      = 2025-272A
CENTER_NAME    = EARTH
REF_FRAME      = TEME
TIME_SYSTEM    = UTC
MEAN_ELEMENT_THEORY = SGP/SGP4

EPOCH          = 2026-04-05T21:35:59.578368
MEAN_MOTION    = 15.61975413
ECCENTRICITY   = .0003645
INCLINATION    = 41.4683
RA_OF_ASC_NODE = 42.4237
ARG_OF_PERICENTER = 135.7211
MEAN_ANOMALY   = 224.3921

EPHEMERIS_TYPE = 0
CLASSIFICATION_TYPE = U
NORAD_CAT_ID   = 66645
ELEMENT_SET_NO = 999
REV_AT_EPOCH   = 28213
BSTAR          = .33283E-3
MEAN_MOTION_DOT = .29649E-3
MEAN_MOTION_DDOT = 0

CCSDS_OMM_VERS = 2.0
CREATION_DATE  = 
ORIGINATOR     = 

OBJECT_NAME    = SOYUZ-MS 28
OBJECT_ID      = 2025-275A
CENTER_NAME    = EARTH
REF_FRAME      = TEME
TIME_SYSTEM    = UTC
MEAN_ELEMENT_THEORY = SGP/SGP4

EPOCH          = 2026-04-05T19:28:26.281920
MEAN_MOTION    = 15.48791307
ECCENTRICITY   = .0006355
INCLINATION    = 51.6329
RA_OF_ASC_NODE = 298.2672
ARG_OF_PERICENTER = 276.3215
MEAN_ANOMALY   = 83.7049

EPHEMERIS_TYPE = 0
CLASSIFICATION_TYPE = U
NORAD_CAT_ID   = 66664
ELEMENT_SET_NO = 999
REV_AT_EPOCH   = 56064
BSTAR          = .1599E-3
MEAN_MOTION_DOT = .8309E-4
MEAN_MOTION_DDOT = 0

CCSDS_OMM_VERS = 2.0
CREATION_DATE  = 
ORIGINATOR     = 

OBJECT_NAME    = DUPLEX
OBJECT_ID      = 1998-067XS
CENTER_NAME    = EARTH
REF_FRAME      = TEME
TIME_SYSTEM    = UTC
MEAN_ELEMENT_THEORY = SGP/SGP4

EPOCH          = 2026-04-05T17:36:41.037984
MEAN_MOTION    = 15.58082478
ECCENTRICITY   = .0003427
INCLINATION    = 51.6291
RA_OF_ASC_NODE = 293.9995
ARG_OF_PERICENTER = 242.9142
MEAN_ANOMALY   = 117.1501

EPHEMERIS_TYPE = 0
CLASSIFICATION_TYPE = U
NORAD_CAT_ID   = 66906
ELEMENT_SET_NO = 999
REV_AT_EPOCH   = 1934
BSTAR          = .42076E-3
MEAN_MOTION_DOT = .31879E-3
MEAN_MOTION_DDOT = 0

CCSDS_OMM_VERS = 2.0
CREATION_DATE  = 
ORIGINATOR     = 

OBJECT_NAME    = ISS OBJECT XT
OBJECT_ID      = 1998-067XT
CENTER_NAME    = EARTH
REF_FRAME      = TEME
TIME_SYSTEM    = UTC
MEAN_ELEMENT_THEORY = SGP/SGP4

EPOCH          = 2026-04-05T19:32:05.160768
MEAN_MOTION    = 15.81038991
ECCENTRICITY   = .0007627
INCLINATION    = 51.6217
RA_OF_ASC_NODE = 286.2314
ARG_OF_PERICENTER = 257.9679
MEAN_ANOMALY   = 102.0469

EPHEMERIS_TYPE = 0
CLASSIFICATION_TYPE = U
NORAD_CAT_ID   = 66907
ELEMENT_SET_NO = 999
REV_AT_EPOCH   = 1945
BSTAR          = .15655E-2
MEAN_MOTION_DOT = .323618E-2
MEAN_MOTION_DDOT = 0

CCSDS_OMM_VERS = 2.0
CREATION_DATE  = 
ORIGINATOR     = 

OBJECT_NAME    = ISS OBJECT XU
OBJECT_ID      = 1998-067XU
CENTER_NAME    = EARTH
REF_FRAME      = TEME
TIME_SYSTEM    = UTC
MEAN_ELEMENT_THEORY = SGP/SGP4

EPOCH          = 2026-04-05T19:24:22.596768
MEAN_MOTION    = 15.81429806
ECCENTRICITY   = .0007804
INCLINATION    = 51.6224
RA_OF_ASC_NODE = 286.1920
ARG_OF_PERICENTER = 256.8765
MEAN_ANOMALY   = 103.1367

EPHEMERIS_TYPE = 0
CLASSIFICATION_TYPE = U
NORAD_CAT_ID   = 66908
ELEMENT_SET_NO = 999
REV_AT_EPOCH   = 1945
BSTAR          = .15091E-2
MEAN_MOTION_DOT = .317413E-2
MEAN_MOTION_DDOT = 0

CCSDS_OMM_VERS = 2.0
CREATION_DATE  = 
ORIGINATOR     = 

OBJECT_NAME    = SILVERSAT
OBJECT_ID      = 1998-067XV
CENTER_NAME    = EARTH
REF_FRAME      = TEME
TIME_SYSTEM    = UTC
MEAN_ELEMENT_THEORY = SGP/SGP4

EPOCH          = 2026-04-05T17:32:03.770016
MEAN_MOTION    = 15.89127269
ECCENTRICITY   = .000944
INCLINATION    = 51.6180
RA_OF_ASC_NODE = 284.8979
ARG_OF_PERICENTER = 264.4078
MEAN_ANOMALY   = 95.5851

EPHEMERIS_TYPE = 0
CLASSIFICATION_TYPE = U
NORAD_CAT_ID   = 66909
ELEMENT_SET_NO = 999
REV_AT_EPOCH   = 1946
BSTAR          = .17462E-2
MEAN_MOTION_DOT = .511697E-2
MEAN_MOTION_DDOT = .10942E-3

CCSDS_OMM_VERS = 2.0
CREATION_DATE  = 
ORIGINATOR     = 

OBJECT_NAME    = ISS OBJECT XW
OBJECT_ID      = 1998-067XW
CENTER_NAME    = EARTH
REF_FRAME      = TEME
TIME_SYSTEM    = UTC
MEAN_ELEMENT_THEORY = SGP/SGP4

EPOCH          = 2026-04-05T18:24:10.108224
MEAN_MOTION    = 15.78843649
ECCENTRICITY   = .0007677
INCLINATION    = 51.6196
RA_OF_ASC_NODE = 286.6599
ARG_OF_PERICENTER = 253.0200
MEAN_ANOMALY   = 106.9959

EPHEMERIS_TYPE = 0
CLASSIFICATION_TYPE = U
NORAD_CAT_ID   = 66910
ELEMENT_SET_NO = 999
REV_AT_EPOCH   = 1944
BSTAR          = .14295E-2
MEAN_MOTION_DOT = .26546E-2
MEAN_MOTION_DDOT = 0

CCSDS_OMM_VERS = 2.0
CREATION_DATE  = 
ORIGINATOR     = 

OBJECT_NAME    = ISS OBJECT XX
OBJECT_ID      = 1998-067XX
CENTER_NAME    = EARTH
REF_FRAME      = TEME
TIME_SYSTEM    = UTC
MEAN_ELEMENT_THEORY = SGP/SGP4

EPOCH          = 2026-04-05T18:05:22.152768
MEAN_MOTION    = 16.01632842
ECCENTRICITY   = .0012061
INCLINATION    = 51.6135
RA_OF_ASC_NODE = 282.7499
ARG_OF_PERICENTER = 272.1994
MEAN_ANOMALY   = 87.7635

EPHEMERIS_TYPE = 0
CLASSIFICATION_TYPE = U
NORAD_CAT_ID   = 66911
ELEMENT_SET_NO = 999
REV_AT_EPOCH   = 1948
BSTAR          = .21131E-2
MEAN_MOTION_DOT = .1217551E-1
MEAN_MOTION_DDOT = .79992E-3

CCSDS_OMM_VERS = 2.0
CREATION_DATE  = 
ORIGINATOR     = 

OBJECT_NAME    = ISS OBJECT XY
OBJECT_ID      = 1998-067XY
CENTER_NAME    = EARTH
REF_FRAME      = TEME
TIME_SYSTEM    = UTC
MEAN_ELEMENT_THEORY = SGP/SGP4

EPOCH          = 2026-04-05T19:43:11.965728
MEAN_MOTION    = 15.69823635
ECCENTRICITY   = .000529
INCLINATION    = 51.6244
RA_OF_ASC_NODE = 289.3172
ARG_OF_PERICENTER = 250.7234
MEAN_ANOMALY   = 109.3192

EPHEMERIS_TYPE = 0
CLASSIFICATION_TYPE = U
NORAD_CAT_ID   = 66912
ELEMENT_SET_NO = 999
REV_AT_EPOCH   = 1940
BSTAR          = .11568E-2
MEAN_MOTION_DOT = .14297E-2
MEAN_MOTION_DDOT = 0

CCSDS_OMM_VERS = 2.0
CREATION_DATE  = 
ORIGINATOR     = 

OBJECT_NAME    = KNACKSAT-2
OBJECT_ID      = 1998-067XZ
CENTER_NAME    = EARTH
REF_FRAME      = TEME
TIME_SYSTEM    = UTC
MEAN_ELEMENT_THEORY = SGP/SGP4

EPOCH          = 2026-04-05T19:39:15.499296
MEAN_MOTION    = 15.54247426
ECCENTRICITY   = .001084
INCLINATION    = 51.6317
RA_OF_ASC_NODE = 296.8195
ARG_OF_PERICENTER = 286.1763
MEAN_ANOMALY   = 73.8034

EPHEMERIS_TYPE = 0
CLASSIFICATION_TYPE = U
NORAD_CAT_ID   = 67683
ELEMENT_SET_NO = 999
REV_AT_EPOCH   = 900
BSTAR          = .71168E-3
MEAN_MOTION_DOT = .47225E-3
MEAN_MOTION_DDOT = 0

